STARLINK-30448          
1 57928U 23147R   26067.45558543  .00001050  00000+0  92808-4 0  9994
2 57928  43.0037 332.6498 0001057 276.8117  83.2605 15.02537394136407
QPS-SAR-11 (YAMATSUMI-I)
1 64340U 25125A   26068.25519236  .00007204  00000+0  57385-3 0  9990
2 64340  42.0098  22.3823 0010044 210.0400 149.9850 15.00627459 40603
